      2.10          N: GNSS NAV DATA                        RINEX VERSION / TYPE
fic2rin                                 01/09/2019 00:41:30 PGM / RUN BY / DATE
                                                            END OF HEADER
23 19  1  8 22  0  0.0-2.011144533753e-04 1.136868377216e-12 0.000000000000e+00
    7.400000000000e+01 2.015625000000e+01 5.167000940615e-09-1.953230068444e+00
    8.344650268555e-07 1.267829164863e-02 5.869194865227e-06 5.153655433655e+03
    2.520000000000e+05 1.769512891769e-07 1.597543609978e+00-8.381903171539e-08
    9.428470608846e-01 2.514375000000e+02-2.309838996237e+00-8.117480982809e-09
    5.639520622956e-10 1.000000000000e+00 2.035000000000e+03 0.000000000000e+00
    2.400000000000e+00 0.000000000000e+00-2.002343535423e-08 7.400000000000e+01
    2.448060000000e+05 4.000000000000e+00
15 19  1  8 22  0  0.0-3.330293111503e-04 1.591615728103e-12 0.000000000000e+00
    9.400000000000e+01 2.546875000000e+01 5.504157841696e-09-1.439538095568e+00
    1.342967152596e-06 1.117431512102e-02 5.943700671196e-06 5.153614820480e+03
    2.520000000000e+05 2.048909664154e-07 1.524809619858e+00-5.587935447693e-08
    9.275695733159e-01 2.404687500000e+02 7.551392199739e-01-8.416064848597e-09
    5.010923010771e-10 1.000000000000e+00 2.035000000000e+03 0.000000000000e+00
    2.400000000000e+00 0.000000000000e+00-1.117587089539e-08 9.400000000000e+01
    2.448060000000e+05 4.000000000000e+00
11 19  1  8 22  0  0.0-6.779828108847e-04 5.115907697473e-12 0.000000000000e+00
    7.600000000000e+01-4.046875000000e+01 5.811313493104e-09 2.877350818240e+00
   -1.974403858185e-06 1.662497303914e-02 4.097819328308e-08 5.153679273605e+03
    2.520000000000e+05 1.825392246246e-07-9.154906186132e-01 8.381903171539e-08
    9.079565202850e-01 3.508750000000e+02 1.853745484557e+00-8.706076928764e-09
   -1.878649681871e-10 1.000000000000e+00 2.035000000000e+03 0.000000000000e+00
    2.400000000000e+00 0.000000000000e+00-1.210719347000e-08 7.600000000000e+01
    2.448060000000e+05 4.000000000000e+00
10 19  1  8 22  0  0.0 1.388285309076e-04-6.252776074689e-12 0.000000000000e+00
    4.500000000000e+01-4.775000000000e+01 4.203389373754e-09 1.565245006189e+00
   -2.454966306686e-06 4.209310049191e-03 1.104548573494e-05 5.153670070648e+03
    2.520000000000e+05-5.401670932770e-08 5.651837824474e-01 4.284083843231e-08
    9.624248912369e-01 1.667187500000e+02-2.791218258404e+00-7.786395763209e-09
    2.710827202548e-10 1.000000000000e+00 2.035000000000e+03 0.000000000000e+00
    2.400000000000e+00 0.000000000000e+00 1.862645149231e-09 4.500000000000e+01
    2.448060000000e+05 4.000000000000e+00
21 19  1  8 22  0  0.0-2.726265229285e-04 6.934897101019e-12 0.000000000000e+00
    4.900000000000e+01-1.047187500000e+02 4.674837582893e-09 1.825780711209e+00
   -5.910173058510e-06 2.469442738220e-02 3.132969141006e-06 5.153561008453e+03
    2.520000000000e+05 4.172325134277e-07-5.341113995179e-01-3.762543201447e-07
    9.469341540999e-01 3.093750000000e+02-1.496174476004e+00-8.108909197188e-09
   -2.575107263554e-10 1.000000000000e+00 2.035000000000e+03 0.000000000000e+00
    2.400000000000e+00 0.000000000000e+00-9.778887033463e-09 4.900000000000e+01
    2.448060000000e+05 4.000000000000e+00
19 19  1  8 22  0  0.0-3.653801977634e-04 3.979039320257e-12 0.000000000000e+00
    7.800000000000e+01 5.365625000000e+01 4.235533569831e-09 2.212449347613e+00
    2.503395080566e-06 9.387766243890e-03 2.214685082436e-06 5.153614793777e+03
    2.520000000000e+05 6.146728992462e-08-1.427829996451e+00-1.396983861923e-07
    9.811890699603e-01 3.454375000000e+02 1.331299551799e+00-8.045335120501e-09
    5.357366012941e-11 1.000000000000e+00 2.035000000000e+03 0.000000000000e+00
    2.400000000000e+00 0.000000000000e+00-1.536682248116e-08 7.800000000000e+01
    2.448060000000e+05 4.000000000000e+00
12 19  1  8 22  0  0.0 2.779313363135e-04-3.069544618484e-12 0.000000000000e+00
    1.000000000000e+02 8.668750000000e+01 3.696225391195e-09 2.257696433890e+00
    4.323199391365e-06 7.260538288392e-03 1.013465225697e-05 5.153725683212e+03
    2.520000000000e+05-3.725290298462e-08-2.508152274930e+00-1.359730958939e-07
    9.846190350035e-01 1.937187500000e+02 1.022161176064e+00-7.488526212889e-09
   -8.964659128322e-11 1.000000000000e+00 2.035000000000e+03 0.000000000000e+00
    2.400000000000e+00 0.000000000000e+00-1.257285475731e-08 1.000000000000e+02
    2.448060000000e+05 4.000000000000e+00
 9 19  1  8 22  0  0.0 4.740338772535e-04-4.433786671143e-12 0.000000000000e+00
    9.200000000000e+01 1.984375000000e+01 5.022352058265e-09-1.435208772378e-01
    8.065253496170e-07 1.484188484028e-03 6.457790732384e-06 5.153749452591e+03
    2.520000000000e+05 2.048909664154e-08 1.601326583005e+00-1.862645149231e-09
    9.520310352968e-01 2.510312500000e+02 1.694981262796e+00-8.203555996750e-09
    4.243033882249e-10 1.000000000000e+00 2.035000000000e+03 0.000000000000e+00
    2.400000000000e+00 0.000000000000e+00 1.396983861923e-09 9.200000000000e+01
    2.448060000000e+05 4.000000000000e+00
32 19  1  8 22  0  0.0-2.834158949554e-04 1.682565198280e-11 0.000000000000e+00
    5.800000000000e+01 2.275000000000e+01 5.002708382885e-09 2.422329174933e-01
    1.169741153717e-06 2.440453390591e-03 6.085261702538e-06 5.153735824585e+03
    2.520000000000e+05-1.862645149231e-09 1.607377964121e+00 4.470348358154e-08
    9.563335870868e-01 2.613437500000e+02-2.635750089091e+00-8.216770832915e-09
    3.775157250453e-10 1.000000000000e+00 2.035000000000e+03 0.000000000000e+00
    2.400000000000e+00 0.000000000000e+00 4.656612873077e-10 5.800000000000e+01
    2.448060000000e+05 4.000000000000e+00
31 19  1  8 22  0  0.0 6.712926551700e-05-2.614797267597e-12 0.000000000000e+00
    8.500000000000e+01-1.565625000000e+01 4.713053460452e-09 2.534063656963e+00
   -7.133930921555e-07 9.165836963803e-03 8.132308721542e-06 5.153808540344e+03
    2.520000000000e+05-1.788139343262e-07 2.691736192200e+00 1.266598701477e-07
    9.612668379708e-01 2.251562500000e+02-3.729554281192e-02-7.889971506126e-09
   -4.960920927984e-10 1.000000000000e+00 2.035000000000e+03 0.000000000000e+00
    2.400000000000e+00 0.000000000000e+00-1.350417733192e-08 8.500000000000e+01
    2.448060000000e+05 4.000000000000e+00
26 19  1  8 22  0  0.0 9.097857400775e-05 1.068656274583e-11 0.000000000000e+00
    7.900000000000e+01 8.431250000000e+01 4.498044504465e-09 1.291235531611e+00
    4.593282938004e-06 3.505258588120e-03 9.968876838684e-06 5.153784652710e+03
    2.520000000000e+05 5.960464477539e-08-2.596738638462e+00 9.313225746155e-09
    9.535434321914e-01 1.807812500000e+02 8.061828616664e-02-7.960331579762e-09
   -2.392956819114e-10 1.000000000000e+00 2.035000000000e+03 0.000000000000e+00
    2.400000000000e+00 0.000000000000e+00 7.450580596924e-09 7.900000000000e+01
    2.448060000000e+05 4.000000000000e+00
29 19  1  8 22  0  0.0 2.975738607347e-04-8.412825991400e-12 0.000000000000e+00
    7.600000000000e+01 5.784375000000e+01 4.101599419508e-09 1.680984656558e-01
    2.939254045486e-06 6.277221255004e-04 2.445653080940e-06 5.153579824448e+03
    2.520000000000e+05-2.048909664154e-08-1.463450925234e+00 2.607703208923e-08
    9.848679314968e-01 3.444687500000e+02 1.526774978615e+00-8.092479941415e-09
    8.750364487804e-11 1.000000000000e+00 2.035000000000e+03 0.000000000000e+00
    2.400000000000e+00 0.000000000000e+00-1.024454832077e-08 7.600000000000e+01
    2.448060000000e+05 4.000000000000e+00
20 19  1  8 22  0  0.0 5.209059454501e-04 4.547473508865e-13 0.000000000000e+00
    5.700000000000e+01-5.728125000000e+01 4.883417699663e-09-2.981293877577e+00
   -2.911314368248e-06 4.471822641790e-03 1.053325831890e-05 5.153677791595e+03
    2.520000000000e+05-5.587935447693e-09 4.514408280025e-01 5.774199962616e-08
    9.300455811830e-01 1.562500000000e+02 2.236081443299e+00-8.049263855577e-09
    2.617966191657e-10 1.000000000000e+00 2.035000000000e+03 0.000000000000e+00
    2.400000000000e+00 0.000000000000e+00-8.381903171539e-09 5.700000000000e+01
    2.448060000000e+05 4.000000000000e+00
28 19  1  8 22  0  0.0 7.613287307322e-04 1.250555214938e-12 0.000000000000e+00
    9.800000000000e+01 7.700000000000e+01 3.883376043914e-09 3.107221191435e-01
    4.095956683159e-06 1.949653681368e-02 1.062825322151e-05 5.153703546524e+03
    2.520000000000e+05-2.365559339523e-07-2.485192205774e+00-1.303851604462e-07
    9.839032979445e-01 1.922812500000e+02-1.480403458392e+00-8.015691028563e-09
   -1.542921411727e-10 1.000000000000e+00 2.035000000000e+03 0.000000000000e+00
    2.400000000000e+00 0.000000000000e+00-1.117587089539e-08 9.800000000000e+01
    2.448060000000e+05 4.000000000000e+00
22 19  1  8 21 59 44.0-6.182636134326e-04-8.867573342286e-12 0.000000000000e+00
    1.100000000000e+01-6.321875000000e+01 4.979493130162e-09-1.318096070986e+00
   -3.121793270111e-06 7.062241435051e-03 1.114420592785e-05 5.153614919662e+03
    2.519840000000e+05-1.005828380585e-07 5.005555727088e-01 1.452863216400e-07
    9.267389020980e-01 1.467812500000e+02-1.439361437970e+00-8.231414300017e-09
    3.164417524977e-10 1.000000000000e+00 2.035000000000e+03 0.000000000000e+00
    2.400000000000e+00 0.000000000000e+00-1.816079020500e-08 1.100000000000e+01
    2.449560000000e+05 4.000000000000e+00
12 19  1  8 21 59 44.0 2.779304049909e-04-3.069544618484e-12 0.000000000000e+00
    0.000000000000e+00 8.668750000000e+01 3.696225391195e-09 2.255362999093e+00
    4.323199391365e-06 7.260543759912e-03 1.013465225697e-05 5.153725681305e+03
    2.519840000000e+05-3.725290298462e-08-2.508152152045e+00-1.359730958939e-07
    9.846190481698e-01 1.937187500000e+02 1.022160993200e+00-7.488526212889e-09
   -8.964659128322e-11 1.000000000000e+00 2.035000000000e+03 0.000000000000e+00
    2.400000000000e+00 0.000000000000e+00-1.257285475731e-08 0.000000000000e+00
    2.497260000000e+05 4.000000000000e+00
